[{"OBJECT_NAME":"WEILAI 1R","OBJECT_ID":"2019-093F","EPOCH":"2026-03-09T22:33:48.244608","MEAN_MOTION":14.997592,"ECCENTRICITY":0.00116762,"INCLINATION":97.7939,"RA_OF_ASC_NODE":158.7373,"ARG_OF_PERICENTER":23.5076,"MEAN_ANOMALY":336.6679,"EPHEMERIS_TYPE":0,"CLASSIFICATION_TYPE":"U","NORAD_CAT_ID":44884,"ELEMENT_SET_NO":999,"REV_AT_EPOCH":33754,"BSTAR":0.00050142794,"MEAN_MOTION_DOT":6.146e-5,"MEAN_MOTION_DDOT":0},{"OBJECT_NAME":"STARLINK-33985","OBJECT_ID":"2025-098T","EPOCH":"2026-03-09T22:38:13.435584","MEAN_MOTION":14.983213,"ECCENTRICITY":0.00023047,"INCLINATION":70.0004,"RA_OF_ASC_NODE":273.6729,"ARG_OF_PERICENTER":275.3083,"MEAN_ANOMALY":84.7813,"EPHEMERIS_TYPE":0,"CLASSIFICATION_TYPE":"U","NORAD_CAT_ID":63943,"ELEMENT_SET_NO":999,"REV_AT_EPOCH":4659,"BSTAR":0.00043903687,"MEAN_MOTION_DOT":5.148e-5,"MEAN_MOTION_DDOT":0}]
